[{"OBJECT_NAME":"STARLINK-5467","OBJECT_ID":"2023-021AJ","EPOCH":"2026-03-09T15:44:49.737408","MEAN_MOTION":14.98299745,"ECCENTRICITY":0.00034055,"INCLINATION":70.0014,"RA_OF_ASC_NODE":164.3842,"ARG_OF_PERICENTER":269.2197,"MEAN_ANOMALY":90.8572,"EPHEMERIS_TYPE":0,"CLASSIFICATION_TYPE":"U","NORAD_CAT_ID":55660,"ELEMENT_SET_NO":999,"REV_AT_EPOCH":16928,"BSTAR":0.00024740261,"MEAN_MOTION_DOT":2.858e-5,"MEAN_MOTION_DDOT":0},{"OBJECT_NAME":"FENGYUN 1C DEB","OBJECT_ID":"1999-025BYC","EPOCH":"2026-03-06T06:01:48.323136","MEAN_MOTION":14.23309758,"ECCENTRICITY":0.03388034,"INCLINATION":99.2996,"RA_OF_ASC_NODE":228.0472,"ARG_OF_PERICENTER":87.1809,"MEAN_ANOMALY":276.8086,"EPHEMERIS_TYPE":0,"CLASSIFICATION_TYPE":"U","NORAD_CAT_ID":31537,"ELEMENT_SET_NO":999,"REV_AT_EPOCH":94468,"BSTAR":0.0028272001,"MEAN_MOTION_DOT":0.00011573,"MEAN_MOTION_DDOT":0}]
